[{"OBJECT_NAME":"YAOGAN-31 03B","OBJECT_ID":"2021-014C","EPOCH":"2026-03-10T00:24:01.951200","MEAN_MOTION":13.45442112,"ECCENTRICITY":0.01685902,"INCLINATION":63.4006,"RA_OF_ASC_NODE":93.5208,"ARG_OF_PERICENTER":0.5266,"MEAN_ANOMALY":359.5908,"EPHEMERIS_TYPE":0,"CLASSIFICATION_TYPE":"U","NORAD_CAT_ID":47693,"ELEMENT_SET_NO":999,"REV_AT_EPOCH":24733,"BSTAR":0.00044455044,"MEAN_MOTION_DOT":1.97e-6,"MEAN_MOTION_DDOT":0},{"OBJECT_NAME":"CZ-4C DEB","OBJECT_ID":"2012-029C","EPOCH":"2026-03-07T23:04:25.867200","MEAN_MOTION":13.19856994,"ECCENTRICITY":0.01247484,"INCLINATION":100.0705,"RA_OF_ASC_NODE":124.4519,"ARG_OF_PERICENTER":175.4998,"MEAN_ANOMALY":184.727,"EPHEMERIS_TYPE":0,"CLASSIFICATION_TYPE":"U","NORAD_CAT_ID":38661,"ELEMENT_SET_NO":999,"REV_AT_EPOCH":66020,"BSTAR":0.00045652398,"MEAN_MOTION_DOT":1.49e-6,"MEAN_MOTION_DDOT":0}]
